{
  "type": "FeatureCollection",
  "features": [
    {
      "type": "Feature",
      "properties": {
        "norad_id": 30144,
        "name": "FENGYUN 1C DEB",
        "group": "fengyun-1c-debris",
        "lat": -5.351717442367038,
        "lon": -22.38908315079482,
        "alt_km": 873.740003398947,
        "timestamp": "2025-12-09T21:34:11.682149+00:00",
        "meta_object_name": "FENGYUN 1C DEB",
        "meta_object_id": "1999-025SZ",
        "meta_epoch": "2025-12-08T23:26:04.936128",
        "meta_mean_motion": 13.9180897,
        "meta_eccentricity": 0.0125856,
        "meta_inclination": 99.0098,
        "meta_ra_of_asc_node": 335.8633,
        "meta_arg_of_pericenter": 301.1433,
        "meta_mean_anomaly": 113.6775,
        "meta_ephemeris_type": 0,
        "meta_classification_type": "U",
        "meta_norad_cat_id": 30144,
        "meta_element_set_no": 999,
        "meta_rev_at_epoch": 95788,
        "meta_bstar": 0.00081744,
        "meta_mean_motion_dot": 1.066e-05,
        "meta_mean_motion_ddot": 0,
        "tle_line1": "1 30144U 99025SZ  25342.97644602  .00001066  00000+0  81744-3 0  9990",
        "tle_line2": "2 30144  99.0098 335.8633 0125856 301.1433 113.6775 13.91808970957885"
      },
      "geometry": {
        "type": "Point",
        "coordinates": [
          -22.38908315079482,
          -5.351717442367038
        ]
      }
    },
    {
      "type": "Feature",
      "properties": {
        "norad_id": 30145,
        "name": "FENGYUN 1C DEB",
        "group": "fengyun-1c-debris",
        "lat": -22.356767546890865,
        "lon": -90.47824759526401,
        "alt_km": 804.6280805764181,
        "timestamp": "2025-12-09T21:34:11.682159+00:00",
        "meta_object_name": "FENGYUN 1C DEB",
        "meta_object_id": "1999-025TA",
        "meta_epoch": "2025-12-09T13:54:20.800224",
        "meta_mean_motion": 14.13969442,
        "meta_eccentricity": 0.00919947,
        "meta_inclination": 99.27,
        "meta_ra_of_asc_node": 93.0423,
        "meta_arg_of_pericenter": 157.4269,
        "meta_mean_anomaly": 219.739,
        "meta_ephemeris_type": 0,
        "meta_classification_type": "U",
        "meta_norad_cat_id": 30145,
        "meta_element_set_no": 999,
        "meta_rev_at_epoch": 96151,
        "meta_bstar": 0.0048283214,
        "meta_mean_motion_dot": 9.511e-05,
        "meta_mean_motion_ddot": 0,
        "tle_line1": "1 30145U 99025TA  25343.57940741  .00009511  00000+0  48283-2 0  9994",
        "tle_line2": "2 30145  99.2700  93.0423 0091994 157.4269 219.7390 14.13969442961515"
      },
      "geometry": {
        "type": "Point",
        "coordinates": [
          -90.47824759526401,
          -22.356767546890865
        ]
      }
    },
    {
      "type": "Feature",
      "properties": {
        "norad_id": 30146,
        "name": "FENGYUN 1C DEB",
        "group": "fengyun-1c-debris",
        "lat": 81.72501289935381,
        "lon": 68.13983220698654,
        "alt_km": 836.0097208864418,
        "timestamp": "2025-12-09T21:34:11.682169+00:00",
        "meta_object_name": "FENGYUN 1C DEB",
        "meta_object_id": "1999-025TB",
        "meta_epoch": "2025-12-09T11:04:32.166624",
        "meta_mean_motion": 13.86592167,
        "meta_eccentricity": 0.01787341,
        "meta_inclination": 98.02,
        "meta_ra_of_asc_node": 143.5473,
        "meta_arg_of_pericenter": 131.9505,
        "meta_mean_anomaly": 295.9196,
        "meta_ephemeris_type": 0,
        "meta_classification_type": "U",
        "meta_norad_cat_id": 30146,
        "meta_element_set_no": 999,
        "meta_rev_at_epoch": 95372,
        "meta_bstar": 0.0011003059,
        "meta_mean_motion_dot": 1.417e-05,
        "meta_mean_motion_ddot": 0,
        "tle_line1": "1 30146U 99025TB  25343.46148341  .00001417  00000+0  11003-2 0  9996",
        "tle_line2": "2 30146  98.0200 143.5473 0178734 131.9505 295.9196 13.86592167953721"
      },
      "geometry": {
        "type": "Point",
        "coordinates": [
          68.13983220698654,
          81.72501289935381
        ]
      }
    },
    {
      "type": "Feature",
      "properties": {
        "norad_id": 30148,
        "name": "FENGYUN 1C DEB",
        "group": "fengyun-1c-debris",
        "lat": 79.82073251442911,
        "lon": 22.703154998430474,
        "alt_km": 960.2235719368346,
        "timestamp": "2025-12-09T21:34:11.682179+00:00",
        "meta_object_name": "FENGYUN 1C DEB",
        "meta_object_id": "1999-025TD",
        "meta_epoch": "2025-12-09T09:19:19.380864",
        "meta_mean_motion": 13.88476713,
        "meta_eccentricity": 0.01348937,
        "meta_inclination": 99.5451,
        "meta_ra_of_asc_node": 132.6155,
        "meta_arg_of_pericenter": 205.5828,
        "meta_mean_anomaly": 219.8765,
        "meta_ephemeris_type": 0,
        "meta_classification_type": "U",
        "meta_norad_cat_id": 30148,
        "meta_element_set_no": 999,
        "meta_rev_at_epoch": 95470,
        "meta_bstar": 0.0015237794,
        "meta_mean_motion_dot": 1.921e-05,
        "meta_mean_motion_ddot": 0,
        "tle_line1": "1 30148U 99025TD  25343.38841876  .00001921  00000+0  15238-2 0  9996",
        "tle_line2": "2 30148  99.5451 132.6155 0134893 205.5828 219.8765 13.88476713954703"
      },
      "geometry": {
        "type": "Point",
        "coordinates": [
          22.703154998430474,
          79.82073251442911
        ]
      }
    },
    {
      "type": "Feature",
      "properties": {
        "norad_id": 30150,
        "name": "FENGYUN 1C DEB",
        "group": "fengyun-1c-debris",
        "lat": -67.89100380680784,
        "lon": -82.94756755330924,
        "alt_km": 954.0973038292941,
        "timestamp": "2025-12-09T21:34:11.682190+00:00",
        "meta_object_name": "FENGYUN 1C DEB",
        "meta_object_id": "1999-025TF",
        "meta_epoch": "2025-12-09T08:29:39.645312",
        "meta_mean_motion": 13.86588049,
        "meta_eccentricity": 0.01465788,
        "meta_inclination": 98.9942,
        "meta_ra_of_asc_node": 119.4746,
        "meta_arg_of_pericenter": 345.3391,
        "meta_mean_anomaly": 67.9228,
        "meta_ephemeris_type": 0,
        "meta_classification_type": "U",
        "meta_norad_cat_id": 30150,
        "meta_element_set_no": 999,
        "meta_rev_at_epoch": 95411,
        "meta_bstar": 0.00078052469,
        "meta_mean_motion_dot": 9.44e-06,
        "meta_mean_motion_ddot": 0,
        "tle_line1": "1 30150U 99025TF  25343.35393108  .00000944  00000+0  78052-3 0  9994",
        "tle_line2": "2 30150  98.9942 119.4746 0146578 345.3391  67.9228 13.86588049954119"
      },
      "geometry": {
        "type": "Point",
        "coordinates": [
          -82.94756755330924,
          -67.89100380680784
        ]
      }
    },
    {
      "type": "Feature",
      "properties": {
        "norad_id": 30151,
        "name": "FENGYUN 1C DEB",
        "group": "fengyun-1c-debris",
        "lat": 73.32638734608192,
        "lon": -40.22916066116569,
        "alt_km": 1043.5645157719437,
        "timestamp": "2025-12-09T21:34:11.682200+00:00",
        "meta_object_name": "FENGYUN 1C DEB",
        "meta_object_id": "1999-025TG",
        "meta_epoch": "2025-12-09T00:43:01.657920",
        "meta_mean_motion": 13.84464365,
        "meta_eccentricity": 0.01631934,
        "meta_inclination": 99.063,
        "meta_ra_of_asc_node": 351.1336,
        "meta_arg_of_pericenter": 288.7889,
        "meta_mean_anomaly": 138.0683,
        "meta_ephemeris_type": 0,
        "meta_classification_type": "U",
        "meta_norad_cat_id": 30151,
        "meta_element_set_no": 999,
        "meta_rev_at_epoch": 95194,
        "meta_bstar": 0.00091587178,
        "meta_mean_motion_dot": 1.094e-05,
        "meta_mean_motion_ddot": 0,
        "tle_line1": "1 30151U 99025TG  25343.02988030  .00001094  00000+0  91587-3 0  9998",
        "tle_line2": "2 30151  99.0630 351.1336 0163193 288.7889 138.0683 13.84464365951945"
      },
      "geometry": {
        "type": "Point",
        "coordinates": [
          -40.22916066116569,
          73.32638734608192
        ]
      }
    },
    {
      "type": "Feature",
      "properties": {
        "norad_id": 30152,
        "name": "FENGYUN 1C DEB",
        "group": "fengyun-1c-debris",
        "lat": 70.06320503272806,
        "lon": 175.52485193918528,
        "alt_km": 788.4185939802637,
        "timestamp": "2025-12-09T21:34:11.682210+00:00",
        "meta_object_name": "FENGYUN 1C DEB",
        "meta_object_id": "1999-025TH",
        "meta_epoch": "2025-12-09T12:38:04.697664",
        "meta_mean_motion": 13.96651721,
        "meta_eccentricity": 0.01615865,
        "meta_inclination": 99.08,
        "meta_ra_of_asc_node": 201.3172,
        "meta_arg_of_pericenter": 94.2078,
        "meta_mean_anomaly": 267.7568,
        "meta_ephemeris_type": 0,
        "meta_classification_type": "U",
        "meta_norad_cat_id": 30152,
        "meta_element_set_no": 999,
        "meta_rev_at_epoch": 95333,
        "meta_bstar": 0.0033728297,
        "meta_mean_motion_dot": 5.179e-05,
        "meta_mean_motion_ddot": 0,
        "tle_line1": "1 30152U 99025TH  25343.52644326  .00005179  00000+0  33728-2 0  9991",
        "tle_line2": "2 30152  99.0800 201.3172 0161586  94.2078 267.7568 13.96651721953337"
      },
      "geometry": {
        "type": "Point",
        "coordinates": [
          175.52485193918528,
          70.06320503272806
        ]
      }
    }
  ]
}